0 THOR ABLESTAR DEB
1 19302U 61015MC  13283.29788331  .00000532  00000-0  38489-3 0   183
2 19302 066.8471 236.5692 0052023 103.0071 048.9869 14.03504646303335
0 THOR ABLESTAR DEB
1 19302U 61015MC  13286.49710797  .00000754  00000-0  52474-3 0   196
2 19302 066.8475 228.6063 0052122 100.3234 013.8305 14.03506634303788
0 THOR ABLESTAR DEB
1 19302U 61015MC  13288.19782557  .00001121  00000-0  75544-3 0   202
2 19302 066.8475 224.3734 0052150 098.9570 327.0638 14.03510711304020
0 THOR ABLESTAR DEB
1 19302U 61015MC  13290.19327697  .00000867  00000-0  59545-3 0   215
2 19302 066.8475 219.4069 0052225 097.2771 329.6045 14.03516465304307
0 THOR ABLESTAR DEB
1 19302U 61015MC  13291.48602147  .00000769  00000-0  53388-3 0   225
2 19302 066.8474 216.1893 0052273 096.2022 021.5391 14.03519890304482
0 THOR ABLESTAR DEB
1 19302U 61015MC  13293.19711602  .00000807  00000-0  55774-3 0   237
2 19302 066.8472 211.9306 0052355 094.7976 027.3079 14.03523088304722
0 THOR ABLESTAR DEB
1 19302U 61015MC  13294.20180473  .00000815  00000-0  56246-3 0   241
2 19302 066.8471 209.4300 0052396 093.9764 063.7780 14.03525013304866
0 THOR ABLESTAR DEB
1 19302U 61015MC  13296.18054635  .00000998  00000-0  67767-3 0   253
2 19302 066.8471 204.5049 0052495 092.3615 341.9388 14.03527487305144
